[{"OBJECT_NAME":"CS1","OBJECT_ID":"2021-088B","EPOCH":"2026-03-09T18:02:30.253920","MEAN_MOTION":15.31848439,"ECCENTRICITY":0.00141292,"INCLINATION":97.3882,"RA_OF_ASC_NODE":132.1684,"ARG_OF_PERICENTER":78.0335,"MEAN_ANOMALY":282.249,"EPHEMERIS_TYPE":0,"CLASSIFICATION_TYPE":"U","NORAD_CAT_ID":49261,"ELEMENT_SET_NO":999,"REV_AT_EPOCH":24518,"BSTAR":0.00051175576,"MEAN_MOTION_DOT":0.00015722,"MEAN_MOTION_DDOT":0},{"OBJECT_NAME":"STARLINK-32080","OBJECT_ID":"2024-086B","EPOCH":"2026-03-09T09:47:43.914624","MEAN_MOTION":15.27565794,"ECCENTRICITY":7.685e-5,"INCLINATION":43.002,"RA_OF_ASC_NODE":65.3845,"ARG_OF_PERICENTER":267.2778,"MEAN_ANOMALY":92.7986,"EPHEMERIS_TYPE":0,"CLASSIFICATION_TYPE":"U","NORAD_CAT_ID":59683,"ELEMENT_SET_NO":999,"REV_AT_EPOCH":10403,"BSTAR":6.7045858e-5,"MEAN_MOTION_DOT":1.583e-5,"MEAN_MOTION_DDOT":0}]
